FLTSATCOM 7 (USA 20)    
1 17181U 86096A   19054.51795462 -.00000337  00000-0  00000+0 0  9998
2 17181  14.6372   0.1783 0002718 279.1930 160.7153  1.00269844125499
TDRS 3                  
1 19548U 88091B   19052.95455590 -.00000314  00000-0  00000-0 0  9991
2 19548  14.3734   1.8666 0040134 318.9505 111.8275  1.00263515 98613
FLTSATCOM 8 (USA 46)    
1 20253U 89077A   19054.27773831 -.00000160  00000-0  00000+0 0  9997
2 20253  13.0594   9.4355 0007093 316.7594 271.2166  1.00272723233823
SKYNET 4C               
1 20776U 90079A   19054.14322509  .00000110  00000-0  00000+0 0  9993
2 20776  13.9779  10.1723 0003908 332.3835 255.2293  1.00274368104151
TDRS 5                  
1 21639U 91054B   19054.05935336  .00000069  00000-0  00000+0 0  9997
2 21639  14.6522  15.1391 0026320 343.5274   7.6825  1.00276879100924
TDRS 6                  
1 22314U 93003B   19054.44454130 -.00000310  00000-0  00000+0 0  9995
2 22314  14.2423  18.1868 0007350 329.8781 278.9835  1.00266171 95599
UFO 2 (USA 95)          
1 22787U 93056A   19054.14457187  .00000111  00000-0  00000+0 0  9997
2 22787  11.1135  18.5280 0002709 348.0971 226.9304  1.00278543 91875
USA 99 (MILSTAR-1 1)    
1 22988U 94009A   19054.42987427 -.00000283  00000-0  00000+0 0  9996
2 22988  13.3321  56.7054 0001792 300.1380 272.0567  1.00275898  4862
ASTRA 1D                
1 23331U 94070A   19054.51866991 -.00000286  00000-0  00000+0 0  9992
2 23331   8.4479  45.1240 0003944 295.1177 286.5738  1.00270447 89386
USA 107 (DSP 17)        
1 23435U 94084A   19053.79555191 -.00000316  00000-0  00000+0 0  9992
2 23435  14.4478  16.3661 0001267   7.2436   5.5281  1.00263783  4913
UFO 4 (USA 108)         
1 23467U 95003A   19054.31092264 -.00000040  00000-0  00000+0 0  9999
2 23467   9.9195  23.5394 0003463 331.2668  82.2319  1.00276573 88189
AMSC 1                  
1 23553U 95019A   19054.53775031 -.00000115  00000-0  00000+0 0  9999
2 23553  10.7841  34.7655 0008111 330.2154 235.2668  1.00273167 87385
TDRS 7                  
1 23613U 95035B   19054.07586890 -.00000216  00000-0  00000+0 0  9998
2 23613  14.3801   8.8788 0035456  25.3588 230.6374  1.00268504 86361
USA 113                 
1 23628U 95038A   19053.88269451 -.00000355  00000-0  00000+0 0  9990
2 23628  10.9810  33.6815 0002173 286.0751 254.2276  1.00276319  4821
USA 115 (MILSTAR-1 2)   
1 23712U 95060A   19054.45350003 -.00000216  00000-0  00000+0 0  9993
2 23712  12.9424  24.0264 0003292 314.3237 247.9523  1.00271719  4864
INMARSAT 3-F1           
1 23839U 96020A   19054.58289338 -.00000014  00000-0  00000+0 0  9992
2 23839   5.1486  64.6676 0005992 274.3298  88.4814  1.00271622 83843
ASTRA 1F                
1 23842U 96021A   19053.86344161  .00000117  00000-0  00000-0 0  9997
2 23842   0.0540 309.2862 0004813  25.0411 173.2581  1.00269843 25556
MSAT M1                 
1 23846U 96022A   19054.53042546 -.00000104  00000-0  00000+0 0  9995
2 23846   8.6318  44.5376 0006426 304.1095 247.9115  1.00272417 83655
INMARSAT 3-F2           
1 24307U 96053A   19054.37331559 -.00000277  00000-0  00000+0 0  9990
2 24307   3.8882  74.5987 0007295 263.3026 276.7367  1.00000977 82240
AMC-1 (GE-1)            
1 24315U 96054A   19054.42556994  .00000045  00000-0  00000+0 0  9990
2 24315   2.8750  81.8283 0002847 266.9074 186.5587  1.00271074 82242
INMARSAT 3-F3           
1 24674U 96070A   19054.57049030  .00000015  00000-0  00000+0 0  9997
2 24674   4.6410  68.7817 0005182 271.0890 196.7568  1.00273680 81187
AMC-2 (GE-2)            
1 24713U 97002A   19054.07575372 -.00000232  00000-0  00000+0 0  9997
2 24713   5.4712  62.8506 0005449 277.1468 115.0481  1.00269877 31545
INTELSAT 26 (IS-26)     
1 24732U 97007A   19054.46412825 -.00000001  00000-0  00000+0 0  9993
2 24732   8.3647  45.8948 0003925 315.7708  20.6610  1.00274496 80495
USA 130 (DSP 18)        
1 24737U 97008A   19054.27602008  .00000019  00000-0  00000+0 0  9990
2 24737  13.2998  23.9979 0001370  12.3064 224.4494  1.00284560  4822
GALAXY 25 (G-25)        
1 24812U 97026A   19053.64345455 -.00000185  00000-0  00000-0 0  9990
2 24812   0.8168  94.1971 0003395 244.3094 312.2720  1.00271657 79584
INTELSAT 5 (IS-5)       
1 24916U 97046A   19053.70643889  .00000070  00000-0  00000+0 0  9997
2 24916   4.7477  68.0889 0002816 270.4487 291.0742  1.00273001 78825
AMC-3 (GE-3)            
1 24936U 97050A   19053.79119010 -.00000282  00000-0  00000+0 0  9993
2 24936   1.7092  89.1866 0003098 257.0322  18.9732  1.00271729 78660
NSS-5                   
1 24957U 97053A   19054.14507289  .00000086  00000-0  00000+0 0  9999
2 24957   5.0243  66.2818 0004225 293.1601 256.0122  1.00274222 78451
USA 134                 
1 25019U 97065A   19054.11312705 -.00000078  00000-0  00000+0 0  9998
2 25019   9.6561  39.3302 0009310 280.9866 121.2612  1.00269369  4823
ASTRA 1G                
1 25071U 97076A   19053.89757378  .00000045  00000-0  00000-0 0  9995
2 25071   3.5925  75.8149 0003819 258.3334 198.6439  1.00272964 77773
INMARSAT 3-F5           
1 25153U 98006B   19054.57798014 -.00000309  00000-0  00000+0 0  9991
2 25153   3.8145  72.3991 0004494 272.7437 322.0549  1.00269115 77108
UFO 8 (USA 138)         
1 25258U 98016A   19054.31042834 -.00000042  00000-0  00000+0 0  9996
2 25258   8.1761  34.8029 0006925 303.9667  97.6541  1.00266844 76791
THOR III                
1 25358U 98035A   19053.78082949 -.00000065  00000-0  00000-0 0  9995
2 25358   6.4531  55.7505 0002406 289.1882  84.2266  1.00271488 76069
INTELSAT 805 (IS-805)   
1 25371U 98037A   19053.76746192 -.00000053  00000-0  00000+0 0  9993
2 25371   1.3522  91.4646 0003563 254.3259 251.9315  1.00272432 75773
ASTRA 2A                
1 25462U 98050A   19054.04085934 -.00000326  00000-0  00000+0 0  9994
2 25462   0.5153  99.7456 0003147 226.3852 301.2114  1.00269011 74955
JCSAT-4A                
1 25630U 99006A   19054.44762944 -.00000224  00000-0  00000+0 0  9997
2 25630   3.5730  76.8725 0002321 257.4759 129.8415  1.00273139 73228
SKYNET 4E               
1 25639U 99009B   19051.14924846 -.00000046  00000-0  00000-0 0  9997
2 25639  10.5922  24.1478 0003769 292.4598 245.7025  1.00272863 73202
ASIASAT 3S              
1 25657U 99013A   19054.05278640 -.00000259  00000-0  00000+0 0  9994
2 25657   3.7723  75.2378 0004071 252.0909 350.3277  1.00268973 73036
NIMIQ 1                 
1 25740U 99027A   19054.14728719 -.00000220  00000-0  00000+0 0  9997
2 25740   0.0107 151.5534 0005638 182.1997 145.4748  1.00266637 72420
ASTRA 1H                
1 25785U 99033A   19054.43830640 -.00000298  00000-0  00000+0 0  9997
2 25785   5.0079  66.4200 0003228 264.0082 273.2611  1.00275091 72001
ABS-7                   
1 25894U 99046A   19054.47485828 -.00000384  00000-0  00000+0 0  9996
2 25894   0.0183 175.4429 0002945 139.6838 124.9813  1.00272290 70369
ABS-6                   
1 25924U 99053A   19054.38174469 -.00000141  00000-0  00000+0 0  9995
2 25924   0.0612 292.3984 0002124  70.7589  86.2842  1.00271750 71095
TELSTAR 12 (ORION 2)    
1 25949U 99059A   19054.14275094 -.00000084  00000-0  00000+0 0  9994
2 25949   2.2263  87.6438 0003252 244.3930 122.8619  1.00271877 70749
AMC-4 (GE-4)            
1 25954U 99060A   19054.18126615  .00000066  00000-0  00000+0 0  9999
2 25954   0.0844 283.5229 0002728  45.0985 114.4736  1.00270921 70706
UFO 10 (USA 146)        
1 25967U 99063A   19054.34424066 -.00000199  00000-0  00000+0 0  9993
2 25967   7.3263  37.0458 0004255 298.0984 279.6382  1.00273302 70557
GALAXY 11 (G-11)        
1 26038U 99071A   19054.46063882  .00000115  00000-0  00000+0 0  9997
2 26038   0.1086 111.2694 0001018 205.5122  46.9840  1.00272384 70305
USA 148                 
1 26052U 00001A   19054.20050115  .00000025  00000-0  00000+0 0  9995
2 26052   7.6835  49.4268 0003548 311.5598  44.4381  1.00277677  4848
ASIASTAR                
1 26107U 00016A   19054.52293760 -.00000354  00000-0  00000+0 0  9998
2 26107   2.9682  79.8222 0004445 263.0900 103.4314  1.00269840 69373
USA 149 (DSP 20)        
1 26356U 00024A   19054.13141025  .00000081  00000-0  00000+0 0  9992
2 26356  11.1478  30.0066 0001430 261.0227 103.1023  1.00272689  4828
EUTELSAT 80A            
1 26369U 00028A   19054.52274648 -.00000064  00000-0  00000+0 0  9993
2 26369   2.3248  83.8591 0007017 270.6701  57.0435  1.00272011 68696
TDRS 8                  
1 26388U 00034A   19054.51203216 -.00000250  00000-0  00000+0 0  9990
2 26388   8.4848  50.9598 0015604 285.4150  90.3516  1.00270646 68394
INTELSAT 9 (IS-9)       
1 26451U 00043A   19054.14041309 -.00000028  00000-0  00000+0 0  9996
2 26451   4.7366  68.2954 0003320 271.9731 289.1374  1.00272465 68069
BRASILSAT B4            
1 26469U 00046A   19054.14615312 -.00000192  00000-0  00000+0 0  9991
2 26469   2.9424  81.5193 0003541 277.4523 114.3698  1.00272362 67851
ASTRA 2B                
1 26494U 00054A   19054.20882831  .00000096  00000-0  00000+0 0  9999
2 26494   3.4873  76.4655 0005250 261.9226 268.9438  1.00272615 67451
AMC-7 (GE-7)            
1 26495U 00054B   19053.70687507  .00000066  00000-0  00000+0 0  9994
2 26495   0.2111  95.2616 0002389 230.8720 305.6334  1.00271428 67468
NSS-11 (AAP-1)          
1 26554U 00059A   19054.12783358  .00000002  00000-0  00000+0 0  9993
2 26554   0.0220 263.2235 0002272  86.0373  25.4737  1.00269412 67399
USA 153                 
1 26575U 00065A   19053.87973532 -.00000343  00000-0  00000+0 0  9998
2 26575   7.1209  52.5656 0002243 282.7633 268.1107  1.00276928  4821
AMC-6 (GE-6)            
1 26580U 00067A   19053.50187064 -.00000238  00000-0  00000+0 0  9996
2 26580   0.0647 289.4870 0002752  41.6773 278.5859  1.00271268 67196
INTELSAT 12 (IS-12)     
1 26590U 00068A   19054.46334314  .00000019  00000-0  00000+0 0  9992
2 26590   1.8232  88.9456 0003308 228.9888  60.4626  1.00375147 67026
